[{"OBJECT_NAME":"ONEWEB-0258","OBJECT_ID":"2021-060K","EPOCH":"2026-06-05T11:26:36.708000","MEAN_MOTION":13.16593791,"ECCENTRICITY":0.0002007,"INCLINATION":87.9105,"RA_OF_ASC_NODE":231.1081,"ARG_OF_PERICENTER":100.6736,"MEAN_ANOMALY":259.4621,"EPHEMERIS_TYPE":0,"CLASSIFICATION_TYPE":"U","NORAD_CAT_ID":48976,"ELEMENT_SET_NO":999,"REV_AT_EPOCH":23805,"BSTAR":-2.3846000000000002e-05,"MEAN_MOTION_DOT":4e-08,"MEAN_MOTION_DDOT":0.0},{"OBJECT_NAME":"ONEWEB-0259","OBJECT_ID":"2021-060L","EPOCH":"2026-06-05T11:17:29.969664","MEAN_MOTION":13.16594333,"ECCENTRICITY":0.0001945,"INCLINATION":87.9104,"RA_OF_ASC_NODE":231.1086,"ARG_OF_PERICENTER":103.9719,"MEAN_ANOMALY":256.1628,"EPHEMERIS_TYPE":0,"CLASSIFICATION_TYPE":"U","NORAD_CAT_ID":48977,"ELEMENT_SET_NO":999,"REV_AT_EPOCH":23808,"BSTAR":-9.5434e-05,"MEAN_MOTION_DOT":-2.4e-07,"MEAN_MOTION_DDOT":0.0},{"OBJECT_NAME":"ONEWEB-0260","OBJECT_ID":"2021-060M","EPOCH":"2026-06-05T11:04:56.630784","MEAN_MOTION":13.16593583,"ECCENTRICITY":0.0002109,"INCLINATION":87.9088,"RA_OF_ASC_NODE":231.1107,"ARG_OF_PERICENTER":90.5395,"MEAN_ANOMALY":269.5978,"EPHEMERIS_TYPE":0,"CLASSIFICATION_TYPE":"U","NORAD_CAT_ID":48978,"ELEMENT_SET_NO":999,"REV_AT_EPOCH":23806,"BSTAR":-0.00014086,"MEAN_MOTION_DOT":-4.1e-07,"MEAN_MOTION_DDOT":0.0},{"OBJECT_NAME":"ONEWEB-0261","OBJECT_ID":"2021-060N","EPOCH":"2026-06-05T12:11:03.651360","MEAN_MOTION":13.16595503,"ECCENTRICITY":0.0001702,"INCLINATION":87.9102,"RA_OF_ASC_NODE":231.1033,"ARG_OF_PERICENTER":95.2192,"MEAN_ANOMALY":264.9133,"EPHEMERIS_TYPE":0,"CLASSIFICATION_TYPE":"U","NORAD_CAT_ID":48979,"ELEMENT_SET_NO":999,"REV_AT_EPOCH":23812,"BSTAR":6.8341e-05,"MEAN_MOTION_DOT":3.9e-07,"MEAN_MOTION_DDOT":0.0},{"OBJECT_NAME":"ONEWEB-0262","OBJECT_ID":"2021-060P","EPOCH":"2026-06-05T11:42:34.515072","MEAN_MOTION":13.16594387,"ECCENTRICITY":0.0001877,"INCLINATION":87.91,"RA_OF_ASC_NODE":231.0929,"ARG_OF_PERICENTER":106.8317,"MEAN_ANOMALY":253.302,"EPHEMERIS_TYPE":0,"CLASSIFICATION_TYPE":"U","NORAD_CAT_ID":48980,"ELEMENT_SET_NO":999,"REV_AT_EPOCH":23808,"BSTAR":0.00016511000000000002,"MEAN_MOTION_DOT":7.6e-07,"MEAN_MOTION_DDOT":0.0},{"OBJECT_NAME":"ONEWEB-0263","OBJECT_ID":"2021-060Q","EPOCH":"2026-06-05T10:38:44.221632","MEAN_MOTION":13.16594592,"ECCENTRICITY":0.0001702,"INCLINATION":87.9105,"RA_OF_ASC_NODE":231.1128,"ARG_OF_PERICENTER":101.0102,"MEAN_ANOMALY":259.122,"EPHEMERIS_TYPE":0,"CLASSIFICATION_TYPE":"U","NORAD_CAT_ID":48981,"ELEMENT_SET_NO":999,"REV_AT_EPOCH":23804,"BSTAR":6.3539e-05,"MEAN_MOTION_DOT":3.7e-07,"MEAN_MOTION_DDOT":0.0},{"OBJECT_NAME":"ONEWEB-0264","OBJECT_ID":"2021-060R","EPOCH":"2026-06-05T11:32:19.436064","MEAN_MOTION":13.1659368,"ECCENTRICITY":0.0001891,"INCLINATION":87.9102,"RA_OF_ASC_NODE":231.1088,"ARG_OF_PERICENTER":93.207,"MEAN_ANOMALY":266.9277,"EPHEMERIS_TYPE":0,"CLASSIFICATION_TYPE":"U","NORAD_CAT_ID":48982,"ELEMENT_SET_NO":999,"REV_AT_EPOCH":23805,"BSTAR":-0.00021405,"MEAN_MOTION_DOT":-6.9e-07,"MEAN_MOTION_DDOT":0.0},{"OBJECT_NAME":"ONEWEB-0266","OBJECT_ID":"2021-060T","EPOCH":"2026-06-05T12:03:05.410080","MEAN_MOTION":13.16593635,"ECCENTRICITY":0.000205,"INCLINATION":87.9102,"RA_OF_ASC_NODE":231.0948,"ARG_OF_PERICENTER":99.513,"MEAN_ANOMALY":260.6232,"EPHEMERIS_TYPE":0,"CLASSIFICATION_TYPE":"U","NORAD_CAT_ID":48984,"ELEMENT_SET_NO":999,"REV_AT_EPOCH":23804,"BSTAR":0.00022006,"MEAN_MOTION_DOT":9.7e-07,"MEAN_MOTION_DDOT":0.0},{"OBJECT_NAME":"ONEWEB-0267","OBJECT_ID":"2021-060U","EPOCH":"2026-06-05T05:01:18.748992","MEAN_MOTION":13.16594197,"ECCENTRICITY":0.0001836,"INCLINATION":87.9105,"RA_OF_ASC_NODE":231.1495,"ARG_OF_PERICENTER":96.3843,"MEAN_ANOMALY":263.7498,"EPHEMERIS_TYPE":0,"CLASSIFICATION_TYPE":"U","NORAD_CAT_ID":48985,"ELEMENT_SET_NO":999,"REV_AT_EPOCH":23801,"BSTAR":0.0003065,"MEAN_MOTION_DOT":1.3e-06,"MEAN_MOTION_DDOT":0.0},{"OBJECT_NAME":"ONEWEB-0268","OBJECT_ID":"2021-060V","EPOCH":"2026-06-04T17:19:05.822688","MEAN_MOTION":13.1659527,"ECCENTRICITY":0.0002102,"INCLINATION":87.9104,"RA_OF_ASC_NODE":231.2569,"ARG_OF_PERICENTER":94.8045,"MEAN_ANOMALY":265.3326,"EPHEMERIS_TYPE":0,"CLASSIFICATION_TYPE":"U","NORAD_CAT_ID":48986,"ELEMENT_SET_NO":999,"REV_AT_EPOCH":23821,"BSTAR":-0.00023099,"MEAN_MOTION_DOT":-7.5e-07,"MEAN_MOTION_DDOT":0.0},{"OBJECT_NAME":"ONEWEB-0269","OBJECT_ID":"2021-060W","EPOCH":"2026-06-05T11:06:05.749056","MEAN_MOTION":13.16593255,"ECCENTRICITY":0.0002159,"INCLINATION":87.9084,"RA_OF_ASC_NODE":231.111,"ARG_OF_PERICENTER":99.9355,"MEAN_ANOMALY":260.202,"EPHEMERIS_TYPE":0,"CLASSIFICATION_TYPE":"U","NORAD_CAT_ID":48987,"ELEMENT_SET_NO":999,"REV_AT_EPOCH":23808,"BSTAR":0.00024345,"MEAN_MOTION_DOT":1.06e-06,"MEAN_MOTION_DDOT":0.0},{"OBJECT_NAME":"ONEWEB-0270","OBJECT_ID":"2021-060X","EPOCH":"2026-06-05T11:31:10.665984","MEAN_MOTION":13.16593772,"ECCENTRICITY":0.000169,"INCLINATION":87.9106,"RA_OF_ASC_NODE":231.1075,"ARG_OF_PERICENTER":104.8959,"MEAN_ANOMALY":255.2359,"EPHEMERIS_TYPE":0,"CLASSIFICATION_TYPE":"U","NORAD_CAT_ID":48988,"ELEMENT_SET_NO":999,"REV_AT_EPOCH":23812,"BSTAR":-9.5302e-05,"MEAN_MOTION_DOT":-2.4e-07,"MEAN_MOTION_DDOT":0.0},{"OBJECT_NAME":"ONEWEB-0271","OBJECT_ID":"2021-060Y","EPOCH":"2026-06-05T11:12:56.154240","MEAN_MOTION":13.16594303,"ECCENTRICITY":0.000177,"INCLINATION":87.9104,"RA_OF_ASC_NODE":231.1002,"ARG_OF_PERICENTER":97.9774,"MEAN_ANOMALY":262.1558,"EPHEMERIS_TYPE":0,"CLASSIFICATION_TYPE":"U","NORAD_CAT_ID":48989,"ELEMENT_SET_NO":999,"REV_AT_EPOCH":23812,"BSTAR":-8.097e-05,"MEAN_MOTION_DOT":-1.8e-07,"MEAN_MOTION_DDOT":0.0},{"OBJECT_NAME":"ONEWEB-0272","OBJECT_ID":"2021-060Z","EPOCH":"2026-06-05T11:44:50.022240","MEAN_MOTION":13.16595852,"ECCENTRICITY":0.0001938,"INCLINATION":87.9103,"RA_OF_ASC_NODE":231.1074,"ARG_OF_PERICENTER":90.3367,"MEAN_ANOMALY":269.7986,"EPHEMERIS_TYPE":0,"CLASSIFICATION_TYPE":"U","NORAD_CAT_ID":48990,"ELEMENT_SET_NO":999,"REV_AT_EPOCH":23807,"BSTAR":8.288200000000001e-05,"MEAN_MOTION_DOT":4.5e-07,"MEAN_MOTION_DDOT":0.0},{"OBJECT_NAME":"ONEWEB-0273","OBJECT_ID":"2021-060AA","EPOCH":"2026-06-05T10:27:20.447712","MEAN_MOTION":13.16594157,"ECCENTRICITY":0.0001903,"INCLINATION":87.9099,"RA_OF_ASC_NODE":231.1165,"ARG_OF_PERICENTER":102.9683,"MEAN_ANOMALY":257.166,"EPHEMERIS_TYPE":0,"CLASSIFICATION_TYPE":"U","NORAD_CAT_ID":48991,"ELEMENT_SET_NO":999,"REV_AT_EPOCH":23804,"BSTAR":0.00010124,"MEAN_MOTION_DOT":5.2e-07,"MEAN_MOTION_DDOT":0.0},{"OBJECT_NAME":"ONEWEB-0274","OBJECT_ID":"2021-060AB","EPOCH":"2026-06-04T05:52:49.753056","MEAN_MOTION":13.16593413,"ECCENTRICITY":0.0002028,"INCLINATION":87.908,"RA_OF_ASC_NODE":231.3546,"ARG_OF_PERICENTER":90.4123,"MEAN_ANOMALY":269.724,"EPHEMERIS_TYPE":0,"CLASSIFICATION_TYPE":"U","NORAD_CAT_ID":48992,"ELEMENT_SET_NO":999,"REV_AT_EPOCH":23792,"BSTAR":-9.5882e-05,"MEAN_MOTION_DOT":-2.4e-07,"MEAN_MOTION_DDOT":0.0}]