ONEWEB-0258             
1 48976U 21060K   26156.47681375  .00000004  00000+0 -23846-4 0  9995
2 48976  87.9105 231.1081 0002007 100.6736 259.4621 13.16593791238056
ONEWEB-0259             
1 48977U 21060L   26156.47048576 -.00000024  00000+0 -95434-4 0  9991
2 48977  87.9104 231.1086 0001945 103.9719 256.1628 13.16594333238085
ONEWEB-0260             
1 48978U 21060M   26156.46176656 -.00000041  00000+0 -14086-3 0  9994
2 48978  87.9088 231.1107 0002109  90.5395 269.5978 13.16593583238065
ONEWEB-0261             
1 48979U 21060N   26156.50768115  .00000039  00000+0  68341-4 0  9996
2 48979  87.9102 231.1033 0001702  95.2192 264.9133 13.16595503238129
ONEWEB-0262             
1 48980U 21060P   26156.48789948  .00000076  00000+0  16511-3 0  9994
2 48980  87.9100 231.0929 0001877 106.8317 253.3020 13.16594387238084
ONEWEB-0263             
1 48981U 21060Q   26156.44356738  .00000037  00000+0  63539-4 0  9998
2 48981  87.9105 231.1128 0001702 101.0102 259.1220 13.16594592238048
ONEWEB-0264             
1 48982U 21060R   26156.48078051 -.00000069  00000+0 -21405-3 0  9994
2 48982  87.9102 231.1088 0001891  93.2070 266.9277 13.16593680238052
ONEWEB-0266             
1 48984U 21060T   26156.50214595  .00000097  00000+0  22006-3 0  9991
2 48984  87.9102 231.0948 0002050  99.5130 260.6232 13.16593635238043
ONEWEB-0267             
1 48985U 21060U   26156.20924478  .00000130  00000+0  30650-3 0  9999
2 48985  87.9105 231.1495 0001836  96.3843 263.7498 13.16594197238011
ONEWEB-0268             
1 48986U 21060V   26155.72159517 -.00000075  00000+0 -23099-3 0  9999
2 48986  87.9104 231.2569 0002102  94.8045 265.3326 13.16595270238211
ONEWEB-0269             
1 48987U 21060W   26156.46256654  .00000106  00000+0  24345-3 0  9990
2 48987  87.9084 231.1110 0002159  99.9355 260.2020 13.16593255238083
ONEWEB-0270             
1 48988U 21060X   26156.47998456 -.00000024  00000+0 -95302-4 0  9998
2 48988  87.9106 231.1075 0001690 104.8959 255.2359 13.16593772238122
ONEWEB-0271             
1 48989U 21060Y   26156.46731660 -.00000018  00000+0 -80970-4 0  9998
2 48989  87.9104 231.1002 0001770  97.9774 262.1558 13.16594303238126
ONEWEB-0272             
1 48990U 21060Z   26156.48946785  .00000045  00000+0  82882-4 0  9990
2 48990  87.9103 231.1074 0001938  90.3367 269.7986 13.16595852238079
ONEWEB-0273             
1 48991U 21060AA  26156.43565333  .00000052  00000+0  10124-3 0  9999
2 48991  87.9099 231.1165 0001903 102.9683 257.1660 13.16594157238042
ONEWEB-0274             
1 48992U 21060AB  26155.24502029 -.00000024  00000+0 -95882-4 0  9997
2 48992  87.9080 231.3546 0002028  90.4123 269.7240 13.16593413237920
